#cP2023  7 23  0  0  0.00000000      96 ORBIT IGS20 HLM  IGS
## 2272      0.00000000   900.00000000 60148 0.0000000000000
+   32   G01G02G03G04G05G06G07G08G09G10G11G12G13G14G15G16G17
+        G18G19G20G21G22G23G24G25G26G27G28G29G30G31G32  0  0
+          0  0  0  0  0  0  0  0  0  0  0  0  0  0  0  0  0
+          0  0  0  0  0  0  0  0  0  0  0  0  0  0  0  0  0
+          0  0  0  0  0  0  0  0  0  0  0  0  0  0  0  0  0
++         2  2  2  2  2  2  2  2  2  2  2  2  2  2  2  2  2
++         2  2  2  2  2  2  2  2  1  2  2  2  2  2  2  0  0
++         0  0  0  0  0  0  0  0  0  0  0  0  0  0  0  0  0
++         0  0  0  0  0  0  0  0  0  0  0  0  0  0  0  0  0
++         0  0  0  0  0  0  0  0  0  0  0  0  0  0  0  0  0
%c G  cc GPS ccc cccc cccc cccc cccc ccccc ccccc ccccc ccccc
%c cc cc ccc ccc cccc cccc cccc cccc ccccc ccccc ccccc ccccc
%f  1.2500000  1.025000000  0.00000000000  0.000000000000000
%f  0.0000000  0.000000000  0.00000000000  0.000000000000000
%i    0    0    0    0      0      0      0      0         0
%i    0    0    0    0      0      0      0      0         0
/* RAPID ORBIT COMBINATION FROM WEIGHTED AVERAGE OF:        
/* cod emr esa gfz grg jgx jpl ngs sio usn whu              
/* REFERENCED TO IGS TIME (IGST) AND TO WEIGHTED MEAN POLE: 
/* PCV:IGS20      OL/AL:FES2014b NONE     Y  ORB:CMB CLK:CMB
*  2023  7 23  6 45  0.00000000
PG01   6927.345663 -17784.558077 -18659.602084    171.692348  4  7  3  99       
PG02  12632.103660 -19238.991622 -12611.604775   -573.314955  4  8  5  97       
PG03  -4344.357377 -17688.240117 -19514.698579   -220.708433  4  8  3  86       
PG04    293.362717 -26475.990840   1000.275919    103.771577  6  8  6  84       
PG05 -12275.749063  10049.275961  21137.745425   -135.959793  9  6  5 122       
PG06 -23004.274324   3158.001114 -12923.214540    575.157738  4  5  5  91       
PG07 -10135.999743 -12177.756033  21819.351976    117.088889  6  7  6  64       
PG08   6718.643334 -23251.730782  10395.634487   -133.582416  5  5  5  96       
PG09  -7404.320033 -23474.524243   9843.678155   -105.351501  3  6  5  69       
PG10  24074.244454  10842.021962  -4003.114800    -46.279475  5  6  2  90       
PG11 -23294.769916  12665.693890   1034.497291   -287.996010  5  5  5 110       
PG12   -615.433272  16948.216593 -20733.766491   -404.050826  6  4  3 107       
PG13 -12999.924280  17120.637354  15272.987050    550.721785  3  6  3 110       
PG14 -23066.396313 -13284.551806  -1270.810043    131.037564  2  7  2  96       
PG15  -3443.884818  24369.983183   9180.380955     60.630680  6  4  7  97       
PG16  16781.861787  -4965.689748  19803.898506   -477.494846  5  6  5 100       
PG17 -13267.505650  -9721.920679 -20398.185218    721.499216  4  8  7 101       
PG18  12139.787936   9958.607125  21445.458071   -355.819105  6  7  5  99       
PG19 -14956.408788  -1685.867989 -22096.914655    347.639944  6  4  5  92       
PG20 -20600.732853   4581.956568  16045.096318    421.182850  6  7  6 113       
PG21  14468.897092 -18855.742430 -10340.107982    151.809787  4  5  4  82       
PG22  15057.475401  -2656.215766 -21249.962412    516.730012  5  7  2 126       
PG23  19301.388923  16584.613577   7899.465063     46.357410  6  9  4  94       
PG24  -9662.517775  19981.800382 -14637.313649   -266.715996  5  6  5 126       
PG25  13083.993001  18798.184176 -13985.025645    457.801527  5  4  1  81       
PG26  23756.809862   1787.314116  11975.206270    235.581446  2  5     83       
PG27  12702.205235 -13714.330635  18450.337051     -8.496877  7  4  8 101       
PG28  22246.317281  -1979.449574 -14394.413172     81.332996  6  6  5  79       
PG29   4314.196568  24466.201306   9201.324504   -606.194040  3 10  7 113       
PG30 -18551.921179  -5212.032042  18508.976897   -502.219640  5  5  2  77       
PG31  24588.227879  -9657.018422  -4623.641889   -220.559425  4  4  2  83       
PG32  14765.928691   6159.339386 -21051.782367   -526.617690  5  3  5  92       
*  2023  7 23  7  0  0.00000000
PG01   8686.472467 -18697.554622 -16886.262033    171.690767  5  7  3 103       
PG02  13873.887945 -19876.120203 -10165.201982   -573.311488  4  7  4 101       
PG03  -2315.032114 -16678.441784 -20711.635013   -220.693687  4  8  4  92       
PG04    550.237110 -26423.885754  -1867.208309    103.781451  6  8  7  86       
PG05 -14412.519333   8946.301331  20283.982357   -135.961142  9  5  5 113       
PG06 -21695.319099   2214.346328 -15168.774847    575.154197  5  4  5  98       
PG07  -8082.957016 -13429.316297  21901.244464    117.078676  6  7  5  75       
PG08   7046.789631 -21916.472835  12818.681384   -133.583824  5  5  5 103       
PG09  -7206.546322 -24474.154155   7224.464746   -105.342943  3  6  4 102       
PG10  24264.585819  11145.605214  -1148.941798    -46.280615  5  6  2  86       
PG11 -23372.623442  12427.836675  -1832.759664   -288.010865  4  5  4 115       
PG12  -2640.704484  15739.239388 -21516.506510   -404.054805  6  4  2 101       
PG13 -12962.383333  15218.988322  17194.224983    550.726114  4  6  4 111       
PG14 -22914.807896 -13519.220129   1549.949430    131.048316  2  7  3 106       
PG15  -3974.908646  23177.900387  11628.873613     60.633595  6  4  7 110       
PG16  18594.942428  -3653.584705  18485.332239   -477.490241  5  6  5  98       
PG17 -13091.986429 -12071.554541 -19238.489837    721.499895  4  7  7 109       
PG18  10025.827141  11243.759713  21883.233576   -355.831670  6  7  5 106       
PG19 -14768.108835  -4146.282498 -21924.798832    347.644765  6  4  6  96       
PG20 -22165.649894   3827.379419  14008.051440    421.180987  6  8  6 103       
PG21  15552.642342 -19285.102061  -7700.339470    151.809273  4  5  4  96       
PG22  14951.854915   -114.322185 -21497.626253    516.734800  5  7  2 122       
PG23  18283.074178  16280.334315  10508.471049     46.361277  7 10  5  99       
PG24 -11041.367253  20672.479957 -12450.605171   -266.726884  5  6  5 121       
PG25  11529.023827  18188.674404 -16030.944247    457.803607  5  4     76       
PG26  24780.161199   2541.722526   9576.781738    235.580347  2  6  2  84       
PG27  12915.157135 -11472.055087  19802.751844     -8.503297  7  4  8 105       
PG28  20882.277905   -854.111861 -16410.431620     81.331234  5  5  6  98       
PG29   4066.948251  25361.495037   6501.311092   -606.195098  4 10  6  92       
PG30 -16769.289146  -6451.243810  19760.971318   -502.217086  5  5  2  79       
PG31  24138.995231  -9126.154891  -7332.754226   -220.560367  4  4  2  61       
PG32  14788.789226   8554.349055 -20206.376453   -526.624446  5  4  5  86       
*  2023  7 23  7 15  0.00000000
PG01  10216.220577 -19588.212705 -14825.264384    171.689190  5  6  4 115       
PG02  14853.002700 -20391.354169  -7538.266402   -573.308115  4  7  4 109       
PG03   -127.962504 -15734.426377 -21557.452996   -220.678914  4  8  4 106       
PG04    827.146703 -26061.847080  -4702.320010    103.791367  6  8  7 101       
PG05 -16494.175718   8002.863020  19076.510485   -135.962371  8  6  6 110       
PG06 -20243.919274   1060.671409 -17153.416489    575.150652  5  4  5  84       
PG07  -6102.296261 -14781.819193  21621.650445    117.068959  6  6  5  81       
PG08   7472.392353 -20338.290078  15015.812231   -133.584477  5  5  5 103       
PG09  -7027.060432 -25180.031353   4480.284719   -105.334395  4  5  4  97       
PG10  24179.126335  11301.744018   1724.659315    -46.281943  5  7  3  82       
PG11 -23189.414976  12021.739022  -4668.379297   -288.025712  4  5  5 114       
PG12  -4786.815480  14607.856865 -21938.400499   -404.058967  5  4  2  94       
PG13 -13015.577612  13115.872547  18813.085577    550.730640  5  6  4 112       
PG14 -22492.901709 -13619.126511   4344.302039    131.059040  2  7  3  85       
PG15  -4624.220681  21748.710348  13869.679225     60.636971  6  5  7 115       
PG16  20324.828398  -2526.449379  16845.507589   -477.486031  5  6  4 102       
PG17 -13037.275794 -14271.995888 -17734.540869    721.500313  5  7  7 109       
PG18   7959.867957  12658.446452  21944.772022   -355.844284  6  8  5  93       
PG19 -14715.543853  -6570.525177 -21383.707935    347.649301  6  6  6  75       
PG20 -23531.149260   3215.469472  11728.268636    421.179273  5  8  6 106       
PG21  16369.143096 -19565.802222  -4918.371090    151.808820  4  5  4 101       
PG22  14976.386563   2434.474485 -21359.365731    516.739517  5  7  3 124       
PG23  16987.557010  15920.172070  12938.254697     46.365134  7 10  6  96       
PG24 -12192.856589  21261.307371 -10049.125061   -266.737869  5  6  5 114       
PG25   9750.750722  17572.995245 -17809.700369    457.805705  4  3  1  76       
PG26  25578.369590   3144.185542   7015.858760    235.579245  2  6  3  78       
PG27  13256.469539  -9111.490075  20803.374912     -8.509699  6  4  8  95       
PG28  19409.676979    468.679792 -18144.439548     81.329521  5  5  6  94       
PG29   3864.458041  25955.215937   3688.580161   -606.195802  4 11  5  90       
PG30 -14947.759496  -7845.763266  20678.526519   -502.214521  5  4  2  66       
PG31  23472.004803  -8408.578840  -9919.400629   -220.560832  4  4  2  80       
PG32  14924.370957  10826.730774 -19009.352976   -526.631129  5  4  5  82       
EOF
